[{"OBJECT_NAME":"JILIN-1 GAOFEN 03D47","OBJECT_ID":"2022-167L","EPOCH":"2026-03-09T22:56:46.924224","MEAN_MOTION":15.31686941,"ECCENTRICITY":0.00089304,"INCLINATION":97.6835,"RA_OF_ASC_NODE":234.6581,"ARG_OF_PERICENTER":110.4031,"MEAN_ANOMALY":249.8169,"EPHEMERIS_TYPE":0,"CLASSIFICATION_TYPE":"U","NORAD_CAT_ID":54692,"ELEMENT_SET_NO":999,"REV_AT_EPOCH":18014,"BSTAR":0.00047294748,"MEAN_MOTION_DOT":0.00014417,"MEAN_MOTION_DDOT":0},{"OBJECT_NAME":"STARLINK-32867","OBJECT_ID":"2025-022B","EPOCH":"2026-03-09T11:42:51.406272","MEAN_MOTION":15.30189584,"ECCENTRICITY":0.00012788,"INCLINATION":53.1612,"RA_OF_ASC_NODE":130.2311,"ARG_OF_PERICENTER":68.3612,"MEAN_ANOMALY":291.7525,"EPHEMERIS_TYPE":0,"CLASSIFICATION_TYPE":"U","NORAD_CAT_ID":62855,"ELEMENT_SET_NO":999,"REV_AT_EPOCH":6187,"BSTAR":0.00071876974,"MEAN_MOTION_DOT":0.00020982,"MEAN_MOTION_DDOT":0}]
